start=new Date('2023-03-27T00:00:00.000Z').valueOf();
sats=[{"GP_ID":"228920918","REV_AT_EPOCH":"3267","SITE":"AFETR","MEAN_ANOMALY":"280.7240","DECAY_DATE":null,"EPOCH":"2023-03-26T06:00:35.124192","RCS_SIZE":"LARGE","MEAN_MOTION_DOT":"0.00013415","OBJECT_ID":"2022-104W","PERIOD":"95.438","MEAN_ELEMENT_THEORY":"SGP4","CENTER_NAME":"EARTH","EPHEMERIS_TYPE":"0","CLASSIFICATION_TYPE":"U","TIME_SYSTEM":"UTC","ARG_OF_PERICENTER":"79.3919","OBJECT_TYPE":"PAYLOAD","TLE_LINE1":"1 53608U 22104W   23085.25040653  .00013415  00000-0  85965-3 0  9994","OBJECT_NAME":"STARLINK-4647","NORAD_CAT_ID":"53608","INCLINATION":"53.2185","FILE":"3871964","PERIAPSIS":"538.757","ELEMENT_SET_NO":"999","TLE_LINE2":"2 53608  53.2185  40.1074 0001484  79.3919 280.7240 15.08827531 32670","MEAN_MOTION":"15.08827531","LAUNCH_DATE":"2022-08-28","MEAN_MOTION_DDOT":"0.0000000000000","COUNTRY_CODE":"US","REF_FRAME":"TEME","SEMIMAJOR_AXIS":"6917.919","APOAPSIS":"540.810","BSTAR":"0.00085965000000","RA_OF_ASC_NODE":"40.1074","ECCENTRICITY":"0.00014840"},{"SITE":"AFETR","MEAN_ANOMALY":"261.9955","EPOCH":"2023-03-26T09:39:44.633088","DECAY_DATE":null,"RCS_SIZE":"LARGE","GP_ID":"228921169","REV_AT_EPOCH":"3275","PERIOD":"95.437","MEAN_ELEMENT_THEORY":"SGP4","EPHEMERIS_TYPE":"0","CENTER_NAME":"EARTH","MEAN_MOTION_DOT":"0.00014188","OBJECT_ID":"2022-104X","NORAD_CAT_ID":"53609","INCLINATION":"53.2196","FILE":"3871964","PERIAPSIS":"538.754","TIME_SYSTEM":"UTC","CLASSIFICATION_TYPE":"U","ARG_OF_PERICENTER":"98.1192","OBJECT_TYPE":"PAYLOAD","OBJECT_NAME":"STARLINK-4660","TLE_LINE1":"1 53609U 22104X   23085.40259992  .00014188  00000-0  90737-3 0  9991","SEMIMAJOR_AXIS":"6917.834","REF_FRAME":"TEME","APOAPSIS":"540.644","BSTAR":"0.00090737000000","ECCENTRICITY":"0.00013660","RA_OF_ASC_NODE":"43.9264","TLE_LINE2":"2 53609  53.2196  43.9264 0001366  98.1192 261.9955 15.08855305 32759","MEAN_MOTION":"15.08855305","ELEMENT_SET_NO":"999","COUNTRY_CODE":"US","MEAN_MOTION_DDOT":"0.0000000000000","LAUNCH_DATE":"2022-08-28"},{"PERIOD":"95.437","MEAN_ELEMENT_THEORY":"SGP4","CENTER_NAME":"EARTH","EPHEMERIS_TYPE":"0","MEAN_MOTION_DOT":"0.00012818","OBJECT_ID":"2022-104Y","SITE":"AFETR","MEAN_ANOMALY":"275.8036","DECAY_DATE":null,"EPOCH":"2023-03-26T07:26:44.187360","RCS_SIZE":"LARGE","GP_ID":"228921920","REV_AT_EPOCH":"3268","SEMIMAJOR_AXIS":"6917.832","REF_FRAME":"TEME","APOAPSIS":"540.392","BSTAR":"0.00082163000000","RA_OF_ASC_NODE":"39.7653","ECCENTRICITY":"0.00010040","ELEMENT_SET_NO":"999","TLE_LINE2":"2 53610  53.2188  39.7653 0001004  84.3071 275.8036 15.08855817 32683","MEAN_MOTION":"15.08855817","LAUNCH_DATE":"2022-08-28","COUNTRY_CODE":"US","MEAN_MOTION_DDOT":"0.0000000000000","NORAD_CAT_ID":"53610","INCLINATION":"53.2188","FILE":"3871964","PERIAPSIS":"539.002","TIME_SYSTEM":"UTC","CLASSIFICATION_TYPE":"U","OBJECT_TYPE":"PAYLOAD","ARG_OF_PERICENTER":"84.3071","OBJECT_NAME":"STARLINK-4610","TLE_LINE1":"1 53610U 22104Y   23085.31023365  .00012818  00000-0  82163-3 0  9998"},{"BSTAR":"0.00168340000000","RA_OF_ASC_NODE":"40.7241","ECCENTRICITY":"0.00012960","SEMIMAJOR_AXIS":"6917.855","REF_FRAME":"TEME","APOAPSIS":"540.616","ELEMENT_SET_NO":"999","TLE_LINE2":"2 53611  53.2177  40.7241 0001296 107.5190 252.5944 15.08848324 32775","MEAN_MOTION":"15.08848324","LAUNCH_DATE":"2022-08-28","COUNTRY_CODE":"US","MEAN_MOTION_DDOT":"0.0000000000000","INCLINATION":"53.2177","FILE":"3871964","PERIAPSIS":"538.823","NORAD_CAT_ID":"53611","OBJECT_TYPE":"PAYLOAD","ARG_OF_PERICENTER":"107.5190","OBJECT_NAME":"STARLINK-4650","TLE_LINE1":"1 53611U 22104Z   23085.12162429  .00026611  00000-0  16834-2 0  9990","CLASSIFICATION_TYPE":"U","TIME_SYSTEM":"UTC","CENTER_NAME":"EARTH","EPHEMERIS_TYPE":"0","PERIOD":"95.437","MEAN_ELEMENT_THEORY":"SGP4","OBJECT_ID":"2022-104Z","MEAN_MOTION_DOT":"0.00026611","RCS_SIZE":"LARGE","SITE":"AFETR","MEAN_ANOMALY":"252.5944","DECAY_DATE":null,"EPOCH":"2023-03-26T02:55:08.338656","REV_AT_EPOCH":"3277","GP_ID":"228920168"},{"GP_ID":"228920418","REV_AT_EPOCH":"3267","SITE":"AFETR","MEAN_ANOMALY":"268.7907","DECAY_DATE":null,"EPOCH":"2023-03-26T05:44:41.639712","RCS_SIZE":"LARGE","MEAN_MOTION_DOT":"0.00037331","OBJECT_ID":"2022-104AA","PERIOD":"95.438","MEAN_ELEMENT_THEORY":"SGP4","CENTER_NAME":"EARTH","EPHEMERIS_TYPE":"0","TIME_SYSTEM":"UTC","CLASSIFICATION_TYPE":"U","ARG_OF_PERICENTER":"91.3228","OBJECT_TYPE":"PAYLOAD","OBJECT_NAME":"STARLINK-4658","TLE_LINE1":"1 53612U 22104AA  23085.23937083  .00037331  00000-0  23517-2 0  9996","NORAD_CAT_ID":"53612","INCLINATION":"53.2189","FILE":"3871964","PERIAPSIS":"538.903","MEAN_MOTION":"15.08833764","TLE_LINE2":"2 53612  53.2189  40.0330 0001245  91.3228 268.7907 15.08833764 32676","ELEMENT_SET_NO":"999","LAUNCH_DATE":"2022-08-28","COUNTRY_CODE":"US","MEAN_MOTION_DDOT":"0.0000000000000","SEMIMAJOR_AXIS":"6917.899","REF_FRAME":"TEME","APOAPSIS":"540.626","BSTAR":"0.00235170000000","RA_OF_ASC_NODE":"40.0330","ECCENTRICITY":"0.00012450"},{"MEAN_ANOMALY":"261.2326","SITE":"AFETR","DECAY_DATE":null,"EPOCH":"2023-03-26T05:55:15.998016","RCS_SIZE":"LARGE","GP_ID":"228921670","REV_AT_EPOCH":"3267","PERIOD":"95.438","MEAN_ELEMENT_THEORY":"SGP4","CENTER_NAME":"EARTH","EPHEMERIS_TYPE":"0","MEAN_MOTION_DOT":"-0.00001746","OBJECT_ID":"2022-104AB","NORAD_CAT_ID":"53613","INCLINATION":"53.2188","FILE":"3871964","PERIAPSIS":"538.990","CLASSIFICATION_TYPE":"U","TIME_SYSTEM":"UTC","ARG_OF_PERICENTER":"98.8792","OBJECT_TYPE":"PAYLOAD","TLE_LINE1":"1 53613U 22104AB  23085.24671294 -.00001746  00000-0 -91638-4 0  9991","OBJECT_NAME":"STARLINK-4655","SEMIMAJOR_AXIS":"6917.895","REF_FRAME":"TEME","APOAPSIS":"540.530","BSTAR":"-0.00009163800000","RA_OF_ASC_NODE":"40.0834","ECCENTRICITY":"0.00011130","MEAN_MOTION":"15.08835088","TLE_LINE2":"2 53613  53.2188  40.0834 0001113  98.8792 261.2326 15.08835088 32671","ELEMENT_SET_NO":"999","LAUNCH_DATE":"2022-08-28","COUNTRY_CODE":"US","MEAN_MOTION_DDOT":"0.0000000000000"},{"INCLINATION":"53.2179","PERIAPSIS":"538.363","FILE":"3871964","NORAD_CAT_ID":"53616","ARG_OF_PERICENTER":"109.2313","OBJECT_TYPE":"PAYLOAD","TLE_LINE1":"1 53616U 22104AE  23085.11610174  .00016485  00000-0  10511-2 0  9993","OBJECT_NAME":"STARLINK-4605","CLASSIFICATION_TYPE":"U","TIME_SYSTEM":"UTC","BSTAR":"0.00105110000000","ECCENTRICITY":"0.00019520","RA_OF_ASC_NODE":"30.5144","REF_FRAME":"TEME","SEMIMAJOR_AXIS":"6917.849","APOAPSIS":"541.064","TLE_LINE2":"2 53616  53.2179  30.5144 0001952 109.2313 250.8890 15.08850324 32905","MEAN_MOTION":"15.08850324","ELEMENT_SET_NO":"999","COUNTRY_CODE":"US","MEAN_MOTION_DDOT":"0.0000000000000","LAUNCH_DATE":"2022-08-28","RCS_SIZE":"LARGE","MEAN_ANOMALY":"250.8890","SITE":"AFETR","EPOCH":"2023-03-26T02:47:11.190336","DECAY_DATE":null,"REV_AT_EPOCH":"3290","GP_ID":"228921420","EPHEMERIS_TYPE":"0","CENTER_NAME":"EARTH","PERIOD":"95.437","MEAN_ELEMENT_THEORY":"SGP4","OBJECT_ID":"2022-104AE","MEAN_MOTION_DOT":"0.00016485"},{"MEAN_MOTION_DOT":"0.00014163","OBJECT_ID":"2022-104AF","MEAN_ELEMENT_THEORY":"SGP4","PERIOD":"95.438","CENTER_NAME":"EARTH","EPHEMERIS_TYPE":"0","GP_ID":"228920669","REV_AT_EPOCH":"3266","DECAY_DATE":null,"EPOCH":"2023-03-26T04:03:58.003776","SITE":"AFETR","MEAN_ANOMALY":"269.7320","RCS_SIZE":"LARGE","LAUNCH_DATE":"2022-08-28","COUNTRY_CODE":"US","MEAN_MOTION_DDOT":"0.0000000000000","ELEMENT_SET_NO":"999","TLE_LINE2":"2 53617  53.2183  40.3098 0000800  90.3763 269.7320 15.08830115 32664","MEAN_MOTION":"15.08830115","APOAPSIS":"540.329","REF_FRAME":"TEME","SEMIMAJOR_AXIS":"6917.911","RA_OF_ASC_NODE":"40.3098","ECCENTRICITY":"0.00008000","BSTAR":"0.00090642000000","CLASSIFICATION_TYPE":"U","TIME_SYSTEM":"UTC","TLE_LINE1":"1 53617U 22104AF  23085.16942134  .00014163  00000-0  90642-3 0  9998","OBJECT_NAME":"STARLINK-4601","ARG_OF_PERICENTER":"90.3763","OBJECT_TYPE":"PAYLOAD","NORAD_CAT_ID":"53617","FILE":"3871964","PERIAPSIS":"539.222","INCLINATION":"53.2183"},{"MEAN_MOTION_DDOT":"0.0000000000000","COUNTRY_CODE":"US","LAUNCH_DATE":"2022-08-28","TLE_LINE2":"2 53618  53.2186  39.6501 0000960 109.1618 250.9478 15.08842867 32105","MEAN_MOTION":"15.08842867","ELEMENT_SET_NO":"999","ECCENTRICITY":"0.00009600","RA_OF_ASC_NODE":"39.6501","BSTAR":"0.00232280000000","APOAPSIS":"540.401","REF_FRAME":"TEME","SEMIMAJOR_AXIS":"6917.872","OBJECT_NAME":"STARLINK-4604","TLE_LINE1":"1 53618U 22104AG  23085.29084953  .00036876  00000-0  23228-2 0  9999","ARG_OF_PERICENTER":"109.1618","OBJECT_TYPE":"PAYLOAD","CLASSIFICATION_TYPE":"U","TIME_SYSTEM":"UTC","FILE":"3871964","PERIAPSIS":"539.073","INCLINATION":"53.2186","NORAD_CAT_ID":"53618","OBJECT_ID":"2022-104AG","MEAN_MOTION_DOT":"0.00036876","EPHEMERIS_TYPE":"0","CENTER_NAME":"EARTH","MEAN_ELEMENT_THEORY":"SGP4","PERIOD":"95.437","REV_AT_EPOCH":"3210","GP_ID":"228920919","RCS_SIZE":"LARGE","EPOCH":"2023-03-26T06:58:49.399392","DECAY_DATE":null,"SITE":"AFETR","MEAN_ANOMALY":"250.9478"},{"SEMIMAJOR_AXIS":"6917.905","REF_FRAME":"TEME","APOAPSIS":"540.684","BSTAR":"0.00009399800000","RA_OF_ASC_NODE":"40.2847","ECCENTRICITY":"0.00013210","TLE_LINE2":"2 53619  53.2195  40.2847 0001321  84.6480 275.4663 15.08832036 32669","MEAN_MOTION":"15.08832036","ELEMENT_SET_NO":"999","LAUNCH_DATE":"2022-08-28","COUNTRY_CODE":"US","MEAN_MOTION_DDOT":"0.0000000000000","NORAD_CAT_ID":"53619","INCLINATION":"53.2195","FILE":"3871964","PERIAPSIS":"538.856","TIME_SYSTEM":"UTC","CLASSIFICATION_TYPE":"U","ARG_OF_PERICENTER":"84.6480","OBJECT_TYPE":"PAYLOAD","OBJECT_NAME":"STARLINK-4609","TLE_LINE1":"1 53619U 22104AH  23085.16573550  .00001208  00000-0  93998-4 0  9996","PERIOD":"95.438","MEAN_ELEMENT_THEORY":"SGP4","CENTER_NAME":"EARTH","EPHEMERIS_TYPE":"0","MEAN_MOTION_DOT":"0.00001208","OBJECT_ID":"2022-104AH","SITE":"AFETR","MEAN_ANOMALY":"275.4663","DECAY_DATE":null,"EPOCH":"2023-03-26T03:58:39.547200","RCS_SIZE":"LARGE","GP_ID":"228921170","REV_AT_EPOCH":"3266"}];
